[{"OBJECT_NAME":"GENMAT-1","OBJECT_ID":"2023-174W","EPOCH":"2026-03-09T18:03:23.351040","MEAN_MOTION":15.32594666,"ECCENTRICITY":0.00074416,"INCLINATION":97.3728,"RA_OF_ASC_NODE":146.8236,"ARG_OF_PERICENTER":169.2515,"MEAN_ANOMALY":190.8888,"EPHEMERIS_TYPE":0,"CLASSIFICATION_TYPE":"U","NORAD_CAT_ID":58276,"ELEMENT_SET_NO":999,"REV_AT_EPOCH":12973,"BSTAR":0.00042157222,"MEAN_MOTION_DOT":0.0001321,"MEAN_MOTION_DDOT":0},{"OBJECT_NAME":"STARLINK-31255","OBJECT_ID":"2024-020T","EPOCH":"2026-03-09T23:23:51.669312","MEAN_MOTION":15.30184619,"ECCENTRICITY":0.00011119,"INCLINATION":53.1599,"RA_OF_ASC_NODE":321.1706,"ARG_OF_PERICENTER":109.4106,"MEAN_ANOMALY":250.7015,"EPHEMERIS_TYPE":0,"CLASSIFICATION_TYPE":"U","NORAD_CAT_ID":58893,"ELEMENT_SET_NO":999,"REV_AT_EPOCH":11811,"BSTAR":0.00040111818,"MEAN_MOTION_DOT":0.00011534,"MEAN_MOTION_DDOT":0}]
